ASTROCAST-0402          
1 55109U 23001DE  26068.80661100  .00010930  00000+0  41835-3 0  9996
2 55109  97.5556 160.6821 0004209 216.6984 143.3966 15.26734153129364
STARLINK-31887          
1 59839U 24097E   26067.97672315  .00000441  00000+0  25548-4 0  9993
2 59839  43.0030 278.7371 0001147 262.3895  97.6826 15.27564903101809
