[{"OBJECT_NAME":"ASTROCAST-0402","OBJECT_ID":"2023-001DE","EPOCH":"2026-03-09T19:21:31.190400","MEAN_MOTION":15.26734153,"ECCENTRICITY":0.00042092,"INCLINATION":97.5556,"RA_OF_ASC_NODE":160.6821,"ARG_OF_PERICENTER":216.6984,"MEAN_ANOMALY":143.3966,"EPHEMERIS_TYPE":0,"CLASSIFICATION_TYPE":"U","NORAD_CAT_ID":55109,"ELEMENT_SET_NO":999,"REV_AT_EPOCH":12936,"BSTAR":0.00041835119,"MEAN_MOTION_DOT":0.0001093,"MEAN_MOTION_DDOT":0},{"OBJECT_NAME":"STARLINK-31887","OBJECT_ID":"2024-097E","EPOCH":"2026-03-08T23:26:28.880160","MEAN_MOTION":15.27564903,"ECCENTRICITY":0.00011477,"INCLINATION":43.003,"RA_OF_ASC_NODE":278.7371,"ARG_OF_PERICENTER":262.3895,"MEAN_ANOMALY":97.6826,"EPHEMERIS_TYPE":0,"CLASSIFICATION_TYPE":"U","NORAD_CAT_ID":59839,"ELEMENT_SET_NO":999,"REV_AT_EPOCH":10180,"BSTAR":2.5548016e-5,"MEAN_MOTION_DOT":4.41e-6,"MEAN_MOTION_DDOT":0}]
